{
  "type": "FeatureCollection",
  "features": [
    {
      "type": "Feature",
      "properties": {
        "norad_id": 34615,
        "name": "COSMOS 2251 DEB",
        "group": "cosmos-2251-debris",
        "lat": 52.00195234302157,
        "lon": 83.23892662791712,
        "alt_km": 927.3535477363121,
        "timestamp": "2025-12-18T13:51:50.080784+00:00",
        "meta_object_name": "COSMOS 2251 DEB",
        "meta_object_id": "1993-036WL",
        "meta_epoch": "2025-12-17T19:37:28.144704",
        "meta_mean_motion": 13.52204013,
        "meta_eccentricity": 0.0400821,
        "meta_inclination": 74.0049,
        "meta_ra_of_asc_node": 285.9969,
        "meta_arg_of_pericenter": 192.1583,
        "meta_mean_anomaly": 198.7192,
        "meta_ephemeris_type": 0,
        "meta_classification_type": "U",
        "meta_norad_cat_id": 34615,
        "meta_element_set_no": 999,
        "meta_rev_at_epoch": 82884,
        "meta_bstar": 5.2428039e-05,
        "meta_mean_motion_dot": 3.6e-07,
        "meta_mean_motion_ddot": 0,
        "tle_line1": "1 34615U 93036WL  25351.81768686  .00000036  00000+0  52428-4 0  9999",
        "tle_line2": "2 34615  74.0049 285.9969 0400821 192.1583 198.7192 13.52204013828845"
      },
      "geometry": {
        "type": "Point",
        "coordinates": [
          83.23892662791712,
          52.00195234302157
        ]
      }
    },
    {
      "type": "Feature",
      "properties": {
        "norad_id": 34619,
        "name": "COSMOS 2251 DEB",
        "group": "cosmos-2251-debris",
        "lat": -54.304010363109896,
        "lon": 32.18886328599268,
        "alt_km": 636.9541305393122,
        "timestamp": "2025-12-18T13:51:50.080794+00:00",
        "meta_object_name": "COSMOS 2251 DEB",
        "meta_object_id": "1993-036WQ",
        "meta_epoch": "2025-12-17T23:39:36.373824",
        "meta_mean_motion": 14.64657918,
        "meta_eccentricity": 0.00947522,
        "meta_inclination": 74.0433,
        "meta_ra_of_asc_node": 189.858,
        "meta_arg_of_pericenter": 283.5091,
        "meta_mean_anomaly": 75.5534,
        "meta_ephemeris_type": 0,
        "meta_classification_type": "U",
        "meta_norad_cat_id": 34619,
        "meta_element_set_no": 999,
        "meta_rev_at_epoch": 89375,
        "meta_bstar": 0.00016701761,
        "meta_mean_motion_dot": 9.13e-06,
        "meta_mean_motion_ddot": 0,
        "tle_line1": "1 34619U 93036WQ  25351.98583766  .00000913  00000+0  16702-3 0  9993",
        "tle_line2": "2 34619  74.0433 189.8580 0094752 283.5091  75.5534 14.64657918893752"
      },
      "geometry": {
        "type": "Point",
        "coordinates": [
          32.18886328599268,
          -54.304010363109896
        ]
      }
    },
    {
      "type": "Feature",
      "properties": {
        "norad_id": 34620,
        "name": "COSMOS 2251 DEB",
        "group": "cosmos-2251-debris",
        "lat": 28.828132555888658,
        "lon": 19.53738285914256,
        "alt_km": 729.9526361132903,
        "timestamp": "2025-12-18T13:51:50.080804+00:00",
        "meta_object_name": "COSMOS 2251 DEB",
        "meta_object_id": "1993-036WR",
        "meta_epoch": "2025-12-17T15:37:43.675680",
        "meta_mean_motion": 14.49177124,
        "meta_eccentricity": 0.00800634,
        "meta_inclination": 74.051,
        "meta_ra_of_asc_node": 210.3285,
        "meta_arg_of_pericenter": 245.6066,
        "meta_mean_anomaly": 113.6724,
        "meta_ephemeris_type": 0,
        "meta_classification_type": "U",
        "meta_norad_cat_id": 34620,
        "meta_element_set_no": 999,
        "meta_rev_at_epoch": 86898,
        "meta_bstar": 0.001540269,
        "meta_mean_motion_dot": 6.083e-05,
        "meta_mean_motion_ddot": 0,
        "tle_line1": "1 34620U 93036WR  25351.65119995  .00006083  00000+0  15403-2 0  9998",
        "tle_line2": "2 34620  74.0510 210.3285 0080063 245.6066 113.6724 14.49177124868984"
      },
      "geometry": {
        "type": "Point",
        "coordinates": [
          19.53738285914256,
          28.828132555888658
        ]
      }
    },
    {
      "type": "Feature",
      "properties": {
        "norad_id": 34622,
        "name": "COSMOS 2251 DEB",
        "group": "cosmos-2251-debris",
        "lat": -58.110974937279714,
        "lon": -90.84200507225466,
        "alt_km": 810.7262865815246,
        "timestamp": "2025-12-18T13:51:50.080815+00:00",
        "meta_object_name": "COSMOS 2251 DEB",
        "meta_object_id": "1993-036WT",
        "meta_epoch": "2025-12-17T21:31:57.246240",
        "meta_mean_motion": 14.22067123,
        "meta_eccentricity": 0.01045787,
        "meta_inclination": 74.0427,
        "meta_ra_of_asc_node": 297.7571,
        "meta_arg_of_pericenter": 18.9913,
        "meta_mean_anomaly": 37.9607,
        "meta_ephemeris_type": 0,
        "meta_classification_type": "U",
        "meta_norad_cat_id": 34622,
        "meta_element_set_no": 999,
        "meta_rev_at_epoch": 86533,
        "meta_bstar": 0.00082135127,
        "meta_mean_motion_dot": 1.896e-05,
        "meta_mean_motion_ddot": 0,
        "tle_line1": "1 34622U 93036WT  25351.89719035  .00001896  00000+0  82135-3 0  9991",
        "tle_line2": "2 34622  74.0427 297.7571 0104578  18.9913  37.9607 14.22067123865332"
      },
      "geometry": {
        "type": "Point",
        "coordinates": [
          -90.84200507225466,
          -58.110974937279714
        ]
      }
    },
    {
      "type": "Feature",
      "properties": {
        "norad_id": 34626,
        "name": "COSMOS 2251 DEB",
        "group": "cosmos-2251-debris",
        "lat": 72.32009540608955,
        "lon": 68.73293320669131,
        "alt_km": 636.6715228589874,
        "timestamp": "2025-12-18T13:51:50.080825+00:00",
        "meta_object_name": "COSMOS 2251 DEB",
        "meta_object_id": "1993-036WX",
        "meta_epoch": "2025-12-18T07:25:29.798688",
        "meta_mean_motion": 14.72263485,
        "meta_eccentricity": 0.0026845,
        "meta_inclination": 74.0481,
        "meta_ra_of_asc_node": 313.0638,
        "meta_arg_of_pericenter": 39.6325,
        "meta_mean_anomaly": 76.4059,
        "meta_ephemeris_type": 0,
        "meta_classification_type": "U",
        "meta_norad_cat_id": 34626,
        "meta_element_set_no": 999,
        "meta_rev_at_epoch": 89226,
        "meta_bstar": 0.00084995687,
        "meta_mean_motion_dot": 5.37e-05,
        "meta_mean_motion_ddot": 0,
        "tle_line1": "1 34626U 93036WX  25352.30937267  .00005370  00000+0  84996-3 0  9999",
        "tle_line2": "2 34626  74.0481 313.0638 0026845  39.6325  76.4059 14.72263485892264"
      },
      "geometry": {
        "type": "Point",
        "coordinates": [
          68.73293320669131,
          72.32009540608955
        ]
      }
    },
    {
      "type": "Feature",
      "properties": {
        "norad_id": 34634,
        "name": "COSMOS 2251 DEB",
        "group": "cosmos-2251-debris",
        "lat": -72.92513273928392,
        "lon": -44.66727992292425,
        "alt_km": 740.0415799330713,
        "timestamp": "2025-12-18T13:51:50.080835+00:00",
        "meta_object_name": "COSMOS 2251 DEB",
        "meta_object_id": "1993-036XF",
        "meta_epoch": "2025-12-18T02:50:33.988416",
        "meta_mean_motion": 14.55672792,
        "meta_eccentricity": 0.00438756,
        "meta_inclination": 74.0516,
        "meta_ra_of_asc_node": 24.7895,
        "meta_arg_of_pericenter": 130.5744,
        "meta_mean_anomaly": 259.8258,
        "meta_ephemeris_type": 0,
        "meta_classification_type": "U",
        "meta_norad_cat_id": 34634,
        "meta_element_set_no": 999,
        "meta_rev_at_epoch": 88860,
        "meta_bstar": 0.00023308992,
        "meta_mean_motion_dot": 1.002e-05,
        "meta_mean_motion_ddot": 0,
        "tle_line1": "1 34634U 93036XF  25352.11844894  .00001002  00000+0  23309-3 0  9999",
        "tle_line2": "2 34634  74.0516  24.7895 0043875 130.5744 259.8258 14.55672792888608"
      },
      "geometry": {
        "type": "Point",
        "coordinates": [
          -44.66727992292425,
          -72.92513273928392
        ]
      }
    },
    {
      "type": "Feature",
      "properties": {
        "norad_id": 34635,
        "name": "COSMOS 2251 DEB",
        "group": "cosmos-2251-debris",
        "lat": 40.65550980111264,
        "lon": 73.65527730110625,
        "alt_km": 660.5365025072806,
        "timestamp": "2025-12-18T13:51:50.080846+00:00",
        "meta_object_name": "COSMOS 2251 DEB",
        "meta_object_id": "1993-036XG",
        "meta_epoch": "2025-12-18T05:44:50.689248",
        "meta_mean_motion": 14.68336779,
        "meta_eccentricity": 0.00281062,
        "meta_inclination": 74.046,
        "meta_ra_of_asc_node": 60.0871,
        "meta_arg_of_pericenter": 127.0055,
        "meta_mean_anomaly": 289.1307,
        "meta_ephemeris_type": 0,
        "meta_classification_type": "U",
        "meta_norad_cat_id": 34635,
        "meta_element_set_no": 999,
        "meta_rev_at_epoch": 73300,
        "meta_bstar": 0.00084770714,
        "meta_mean_motion_dot": 4.897e-05,
        "meta_mean_motion_ddot": 0,
        "tle_line1": "1 34635U 93036XG  25352.23947557  .00004897  00000+0  84771-3 0  9998",
        "tle_line2": "2 34635  74.0460  60.0871 0028106 127.0055 289.1307 14.68336779733000"
      },
      "geometry": {
        "type": "Point",
        "coordinates": [
          73.65527730110625,
          40.65550980111264
        ]
      }
    }
  ]
}